#dP2023  7  4 18  0  0.00000000      96 __u+U ITR00 EXT  IAC
## 2269 237600.00000000   900.00000000 60129 0.7500000000000
+  119   C06C07C08C09C10C11C12C13C14C16C19C20C21C22C23C24C25
+        C26C27C28C29C30C32C33C34C35C36C37C38C39C40C41C42C43
+        C44C45C46E02E03E04E05E07E08E09E10E11E12E13E14E15E18
+        E19E21E24E25E26E27E30E31E33E34E36G01G02G03G04G05G06
+        G07G08G09G10G11G12G13G14G15G16G17G18G19G20G21G22G23
+        G24G25G26G27G28G29G30G31G32J02J03J04R01R02R03R04R05
+        R07R08R09R11R12R13R14R15R16R17R18R19R20R21R22R24R25
++        11  9 10 11  9 10  9 10  8 11  8  8  8  9  7  9  8
++         8  8  7  8  7  7  9  7  9  7  8  9 10  8  7  8  9
++         7  8  8  7  7  8  7  8  8  8 10  7  7  7  6  7  7
++         7  7  8  7  6  8  7  9  8  6  8  7  7  8  7  7  7
++         7  7  7  7  7  7  7  7  7  7  8  6  9  9  8  7  6
++         6  7  8  8  7  7  7  7  8  8  9 10 10  9  7  8  6
++         7  9  7  9  9  9  7  9  9  8  7  9 10  8  7  9  8
%c M  cc GPS ccc cccc cccc cccc cccc ccccc ccccc ccccc ccccc
%c cc cc ccc ccc cccc cccc cccc cccc ccccc ccccc ccccc ccccc
%f  0.0000000  0.000000000  0.00000000000  0.000000000000000
%f  0.0000000  0.000000000  0.00000000000  0.000000000000000
%i    0    0    0    0      0      0      0      0         0
%i    0    0    0    0      0      0      0      0         0
/* IAC                                ULTRA-RAPID PREDICTION
/* S/V CLOCKS ARE ALIGNED TO GNSS TIME                      
/* G:C1WC2W R:C1PC2P E:C1XC5X C:C2IC6I J:C1CC2S             
/* PCV:IGS20_2247 OL/AL:FES2004  NONE     YN ORB:CoN CLK:CoN
*  2023 07 05  0  0  0.00000000
PC06  -3470.644007  35932.162245 -21508.120709   -165.860654
PC07  -9450.118690  26455.821639  31479.689814   -273.402895
PC08 -17639.187472  35658.986935 -14276.402620    438.958770
PC09   3362.562550  39786.128997 -12174.242956    455.262529
PC10  -2407.516884  27342.104930  32305.634205   -105.035503
PC11  12292.709581  24769.129193   3922.293311    709.142759
PC12  -2212.994224  20195.266147  19168.354294    762.932408
PC13 -11685.964534  35728.016576 -19231.401819    309.306303
PC14  10655.786328  14077.670350 -21612.223631    513.285898
PC16  -3055.382436  35664.784671 -21816.166764     18.426899
PC19 -19920.356479 -10081.278072  16746.915548   -933.893035
PC20  -1488.788899 -15613.254879  23090.627954    458.322981
PC21 -19380.373560  12124.810839 -15971.938757   -930.729691
PC22 -27844.076431   1544.262636    355.307365   -410.802947
PC23  18469.437916  -3784.920257  20585.175400   -957.068464
PC24  -5337.501990  25798.269456   9231.800125    136.973930
PC25  10274.016587  14563.730155  21471.026183    161.180452
PC26 -15834.899548  21883.669347  -7087.355126   -144.173527
PC27   9247.104287 -14155.466620 -22225.625722    164.875725
PC28  18909.588104   3132.599304 -20284.393848    122.756670
PC29 -18720.375931 -20006.182209   5280.081371    142.933296
PC30  -6267.459297 -24101.399552 -12622.660206     -1.875552
PC32  19387.493077 -12262.787910  15916.248800   -542.030953
PC33  19950.063124  10000.697700 -16766.979026   -907.043224
PC34   7348.078967  24345.493667  11456.474215    207.699501
PC35 -19242.051759  -2925.199517  19995.767495    594.970739
PC36  -9400.658722 -15463.965264 -21212.117810   -346.785201
PC37  16735.361971 -20825.386607   8043.133589   -790.107420
PC38 -21420.078605  35891.086954  -6129.612649     89.468147
PC39  -6646.351785  31351.295695 -27215.396149     -3.657626
PC40 -15285.660881  19934.194281  33818.732510    -28.356328
PC41  27866.641027  -1247.805179   -980.572887   -908.440291
PC42    -69.721590  15738.060454 -23002.592312   -624.125950
PC43  18381.329423  20503.112290  -4484.359597     29.226923
PC44  -8976.447369  14375.956560  22148.157113    158.677439
PC45 -18488.251149   4392.797016 -20436.065350   -118.555022
PC46   4289.152389 -25463.760626 -10530.431575    -66.469969
PE02 -25966.232300   5127.449266 -13263.779847     47.895421
PE03 -26678.599103  -4962.277761 -11804.839129    -32.869150
PE04  15115.136257 -10378.910145  23249.284232   -159.517094
PE05 -22789.081907 -17643.545936   6743.543040     -3.407270
PE07   5286.883658  19833.013009 -21323.685452    -57.587099
PE08 -15348.479296  10025.831707 -23232.840412   -109.380290
PE09  -5164.454880 -19673.486192  21504.575100    -73.336342
PE10   5916.458402 -27001.332894 -10594.143112   -546.123557
PE11   -667.343357 -29597.318754   -330.236374   2401.890690
PE12  11186.937320 -20496.204753 -18212.169320   -605.683269
PE13    263.982049  29578.678528   1041.192715    -19.315891
PE14  15741.544494 -13217.467738 -23500.422537    273.013530
PE15 -11255.229187  20190.090630  18484.063184    -34.578184
PE18    606.073589  18747.757878  18044.999520    258.675920
PE19  27078.768543   7131.499485   9608.878401  -2149.261716
PE21  14721.300686  10029.266428  23643.604203   -538.842380
PE24   6353.029940 -20393.889150 -20494.079912   -191.673085
PE25 -14406.366084 -10280.983970 -23717.315181   -607.805178
PE26  11885.108631  20927.617659 -17239.455260    153.545419
PE27  -5626.600275  20238.528659  20862.132423    -91.167668
PE30 -22783.325138  18134.120433   5335.293957   -309.334673
PE31  22440.419865 -18405.951279  -5808.764923      0.295317
PE33  16031.729140   1029.402711 -24866.077304   -442.354134
PE34 -16027.265608   -826.501406  24857.764104    -54.356586
PE36 -11462.145795 -21537.643525  16757.928087    -81.138902
PG01 -13233.752059  10954.049622  19807.649671    174.562183
PG02 -14863.702859   4584.800292  22019.291723   -579.387047
PG03 -23115.199455  12939.116698    367.156151   -245.536184
PG04 -17551.993623   4874.109367 -19357.493655     86.639396
PG05  21908.011019  -1508.339861 -15200.080466   -133.650972
PG06   5558.195364  24324.842819  -8905.229404    580.686094
PG07  -6432.127087  23767.532328  -8832.191262    134.222506
PG08 -23968.014957  -4221.376943  11023.275735   -130.575471
PG09  -8287.020474  12938.642848 -21739.061401   -120.046552
PG10    123.137715 -16361.347925  21029.593975    -43.867518
PG11  12873.237014  12590.401656 -19529.049260   -262.467101
PG12  24542.579189  -9411.660080   3215.826895   -396.753997
PG13  22627.035249  12921.120939   5517.283884    542.875261
PG14  -3785.593031  17755.163710  19351.483344    112.019055
PG15  24121.369531   1052.153133  10886.624486     55.009133
PG16 -20037.365855  -4091.665276 -17490.701694   -484.422833
PG17   7963.013134  19151.812048  16957.970349    720.229099
PG18   5082.783174 -25104.932866  -6696.561854   -333.311873
PG19  14800.785241  19571.943490  10342.800755    339.528890
PG20  15667.083634   6096.718789 -20484.740543    424.423178
PG21 -15463.218042    460.031482  22137.699366    152.499659
PG22 -16958.784303 -18948.939944   8392.277852    508.000121
PG23  12612.100104 -18741.062025  13843.235905     39.829567
PG24  14811.729003  -6401.127702  20676.854489   -247.216372
PG25  18315.670359 -17426.636354  -7998.262084    454.089771
PG26 -10840.430926 -11755.788038 -21345.041521    237.394019
PG27 -23329.254821 -13148.825829    332.595872      3.423784
PG28  -5642.430121 -25022.012193  -6921.879173     83.378367
PG29  10664.577044 -10660.268546 -21925.403702   -604.698159
PG30    -76.361941  26412.371914    265.414019   -506.570191
PG31 -11332.986023 -17311.064472 -16583.107158   -219.457270
PG32 -11478.146480 -18767.940966  15205.899837   -514.469487
PJ02 -31153.528606  27715.572487  11133.639379     -1.070094
PJ03 -24899.199277  26398.548457  26639.506402      0.057235
PJ04 -31615.207323  21532.448472 -12476.979403     96.303428
PR01 -21768.695511  -7317.345023  11088.113131     60.749143
PR02 -24525.456970    207.816553  -7081.736860    -22.627497
PR03 -12928.770868   8142.705180 -20396.797375     80.936800
PR04   5516.254977  11117.000535 -22254.277421    193.781609
PR05  20910.741682   8308.209276 -11982.633845    115.248757
PR07  12007.178829  -8464.671978  20879.896143     59.448579
PR08  -5801.476641 -11232.034416  22218.922672    -71.530647
PR09  17058.315273 -10646.127969  15768.561403    129.410974
PR11   5222.967151 -19662.760265 -15385.238500    -96.191305
PR12  -9119.634170  -6197.626283 -22971.713026     28.759474
PR13 -16581.313556   8832.806677 -17261.486753    -36.745706
PR14 -14875.737312  20704.827336    315.515759     24.895524
PR15  -4338.209492  19109.913970  16348.704030     88.088122
PR16   8867.908632   6320.089870  23080.940784     16.327789
PR17  -3051.169948  15880.062226  19744.481791     -3.054214
PR18   6591.658002  23742.385905   6514.500851     89.953230
PR19  12022.238819  20698.127768  -8834.045023   -238.673098
PR20  11678.840445   2626.768786 -22517.893759    -95.984629
PR21   2361.719592 -16773.050100 -19066.884083    -20.270059
PR22  -6250.636369 -24121.329783  -5462.362074     89.655726
PR24 -12011.331556  -1398.153501  22466.357155    -15.065370
PR25   4096.157129 -15688.070738 -19684.057305   -302.676896
EOF
